#dP2023  2  2  0  0  0.00000000     289   u+U IGS20 FIT  WHU
## 2247 345600.00000000   300.00000000 59977 0.0000000000000
+  115   G01G02G03G04G05G06G07G08G09G10G11G12G13G14G15G16G17
+        G18G19G20G21G23G24G25G26G27G29G30G31G32R01R02R03R04
+        R05R07R08R09R11R12R13R14R15R16R17R18R19R20R21R22E01
+        E02E03E04E05E07E08E09E10E11E12E15E19E21E24E25E26E27
+        E30E31E33E34E36C01C02C03C04C05C06C07C08C09C10C11C12
+        C13C14C16C19C20C21C22C23C24C25C26C27C28C29C30C32C33
+        C34C35C36C37C38C39C40C41C42C43C44C45C46  0  0  0  0
++         0  5  3  5  3  2  4  4  3  3  4  5  4  3  4  4  3
++         3  3  4  4  4  3  4  4  4  5  3  4  4  6  4  6  5
++         3  5  6  4  6  5  5  4  4  6  6  4  6  5  5  5  4
++         4  3  4  4  5  3  4  4  5  3  4  4  4  4  3  4  4
++         4  5  5  4  3 10  9 10 10  9  7  5  6  6  6  7  7
++         7  8  7  4  6  6  5  5  5  4  5  5  5  5  6  5  5
++         6  5  4  5  7  6  6  5  5  6  6  5  5  0  0  0  0
%c M  cc GPS ccc cccc cccc cccc cccc ccccc ccccc ccccc ccccc
%c cc cc ccc ccc cccc cccc cccc cccc ccccc ccccc ccccc ccccc
%f  1.2500000  1.025000000  0.00000000000  0.000000000000000
%f  0.0000000  0.000000000  0.00000000000  0.000000000000000
%i    0    0    0    0      0      0      0      0         0
%i    0    0    0    0      0      0      0      0         0
/* PCV:igs20_2272 OL/AL:FES2014b NONE     YN ORB:CoN CLK:CoN
*  2023  2  2 20 55  0.00000000
PG01  13988.746778 -21196.941200   6809.845347    217.026502
PG02 -10476.643762  24134.321983  -3806.973683   -623.410230
PG03  18065.764839 -12560.968352 -14917.007009   -367.298168
PG04   7399.109162 -14614.857086 -20879.323568    -35.825472
PG05 -26099.753573   5188.316800    711.066187   -114.388772
PG06  -8949.519253 -13890.589470 -20700.559820    567.537157
PG07   5100.316193 -24999.627539   6810.804350    248.107406
PG08  16022.389806  -3470.292841  20915.996362   -106.588215
PG09  -3370.519710 -21449.284974 -15342.223315   -225.377646
PG10  12978.702065  11942.599191  20128.080653    -23.039523
PG11 -16049.490434   -352.957249 -21142.820725    -93.999807
PG12 -19974.957927  10879.453373 -13908.575313   -335.609555
PG13 -17881.830339  -5271.638357  18817.065545    469.743819
PG14  -9886.946790 -13749.590208  20494.071034    -36.096630
PG15 -15588.704734   5810.426813  20305.217123     10.045408
PG16  26778.619471     20.521020  -1748.924243   -521.690972
PG17 -12285.787674 -23188.119003   4176.503311    697.528586
PG18  -3423.027813  24432.562356   9650.780261   -124.463074
PG19 -17450.215916 -18915.559847  -7343.497185    272.475908
PG20 -24244.194328   -500.553919 -10555.280495    453.156383
PG21  15957.857323 -14476.837016  15558.518262    153.799311
PG23     36.918085  15093.028626  21848.469492      4.596060
PG24 -14440.927133  18949.996546  10938.918159    -57.085554
PG25 -10611.230966  15272.633664 -19170.736191    416.766875
PG26  22060.002258   6050.740122 -13888.609913    241.121226
PG27  19903.955936   8193.807279  15598.325766    111.780119
PG29   -760.652760  20105.329887 -17343.680423   -583.944454
PG30  -4509.218829 -20353.801442  16400.553104   -531.527340
PG31  10978.764773  12088.071561 -21030.899771   -208.129166
PG32  15715.377149  21518.968468   1323.333923   -384.014207
PR01  21076.676393   3088.815457 -14022.920121     22.356738
PR02   6913.979411  -8503.534358 -22991.990622    -23.309620
PR03 -10527.114678 -15060.349358 -17616.172108     71.813397
PR04 -21681.779384 -13159.966191  -2613.831691    174.325262
PR05 -21019.440806  -4153.982772  13833.161603    107.136954
PR07  11257.447958  15226.054400  17159.629812     49.171037
PR08  21785.185438  13063.701329   2572.789817    -69.310141
PR09 -16923.329847  16685.574925  -9353.387444    101.975121
PR11  12994.191804   3834.197277 -21604.699194     -0.052696
PR12  22248.135133  -9341.743688  -8286.227445     24.761504
PR13  18127.643154 -16170.050588   7772.502436    -31.585289
PR14   2236.979631 -13742.914561  21373.553657     24.327495
PR15 -13903.687080  -3274.305827  21144.786734     91.346080
PR16 -22105.424398   9350.641489   8678.229380     10.789353
PR17  -2346.722330 -25155.206838  -3632.530564    601.382635
PR18  -8445.833420 -15751.798270 -18153.247529     64.872968
PR19 -10348.603580    -21.151521 -23309.363541   -220.481222
PR20  -6510.856526  20208.264833 -14161.664910    -86.990289
PR21   2940.231914  24755.477591   5359.758018   -370.290861
PR22   8463.789801  15356.716068  18563.346259     69.337689
PE01   3514.664138  16351.016374 -24427.933714   -599.776103
PE02  -3953.137488 -16254.335098  24410.773029     18.463810
PE03 -11926.606451 -24919.912771 -10640.324261   -646.132022
PE04  22530.847389  17661.770889  -7526.807455    -49.769507
PE05   5962.589877 -17676.080038 -22979.937287    -99.122685
PE07 -20150.823410    130.680541  21687.160469    -19.952602
PE08 -22508.010591 -17731.971652   7439.059149    -29.683829
PE09  20137.966257     96.879163 -21689.758287   -822.245658
PE10  16512.382420    457.432252  24561.454252   -509.570242
PE11  17924.953861 -11406.062771  20599.070934    724.890778
PE12  12785.759355  11233.652052  24224.788274   -407.578804
PE15 -12570.004673 -11512.930019 -24186.037550    689.959388
PE19   9711.848814  24794.280750  12939.292435  -3331.392445
PE21 -16523.094743  16148.570771 -18504.698536   -509.882418
PE24  28982.123606  -6054.583690    715.849331  -1092.569157
PE25  16855.755421 -16060.382542  18285.345931   -598.534689
PE26 -12274.299586  26490.848120  -4873.902060      6.931197
PE27 -28772.514749   6729.982815  -1580.296589   -502.823164
PE30 -23469.080561  -7100.288969  16551.653864  -1210.899171
PE31  23964.395300   6552.104574 -16100.072062   -514.977355
PE33    -94.059719  26620.449146  12965.824967   -452.875789
PE34    -66.064539 -26547.821544 -13093.626079    -28.060066
PE36  12627.784855 -26145.325807   5733.778990     -6.598341
PC01 -34291.102430  24486.080749    531.143011    914.250343
PC02   4336.681284  41965.623075   1118.626288   -402.473582
PC03 -14795.801772  39497.610011   1139.177576    163.796829
PC04 -39626.797779  14349.052643   -152.296454      6.835199
PC05  21780.693253  36105.968199   1494.613285    256.894432
PC06  -6895.499651  40019.983037  11840.132076   -189.528810
PC07  -6863.122155  26382.265286 -32106.155665    170.567696
PC08 -18868.907746  29185.431373  23740.570538    527.470349
PC09  -2796.170102  42228.844376   3761.495725    516.664559
PC10    231.113319  27985.565012 -31153.596805     19.571558
PC11 -13325.022043   9513.286902 -22524.482654   -142.565300
PC12 -15773.486735 -11068.693312 -20143.138980    431.127081
PC13 -12922.239872  29821.293753  26873.197666    198.475621
PC14 -22236.923517   4677.484141  16253.768594    436.120450
PC16  -7531.074963  39442.110561  13519.163817     68.167335
PC19  14164.508709 -10846.586741 -21427.372873   -895.062250
PC20  26017.220681   1091.403905  -9984.780991    740.968979
PC21 -23053.076781 -13322.787531  -8370.021052   -912.828246
PC22  -6450.104330 -17138.312939 -21062.397745   -653.119129
PC23  -4794.438670  21299.881343 -17380.614955   -874.609323
PC24 -22716.887335   6009.121609  15010.208174   -460.563553
PC25 -18663.241695  20548.727404  -2751.630365     65.595911
PC26 -13673.707792  -9288.214649  22461.590750    -73.213870
PC27  14207.124266  19190.497257  14440.445890     90.939124
PC28   4709.552761  27471.849917  -1384.618931     66.031455
PC29   7929.225180 -19864.178771  17917.955294     75.837397
PC30  16287.088261    104.700411  22657.491494      1.226897
PC32  23074.751642  13204.051089   8488.273538   -632.468269
PC33 -14227.420313  10910.929225  21394.326381   -875.629878
PC34 -16068.553238   1374.338288 -22780.957268     97.497185
PC35  -4833.535075 -27336.368236   2612.343188    687.120972
PC36  19522.547498 -19839.824055   2098.622969   -651.612825
PC37  12352.649279  10737.712913 -22598.869152   -830.680183
PC38 -24554.178376  30418.848012  15644.841980     56.158796
PC39  -9807.599602  35878.537770  20088.389041     -1.662587
PC40 -10960.216331  20241.542998 -35332.775571    -14.110959
PC41   5772.915744  17116.925891  21324.237729   -566.066449
PC42 -26409.230002  -1892.372958   8892.582186   -859.086347
PC43  -8556.149068  19239.903213 -18332.641996      5.217631
PC44 -14937.835195 -18748.797240 -14265.600543      3.121331
PC45   4515.438339 -21119.162697  17679.167237    -55.490737
PC46  23071.312672  -7656.310837 -13753.413454    -30.738467
EOF
